[{"OBJECT_NAME":"STARLINK-5068","OBJECT_ID":"2023-014AJ","EPOCH":"2026-03-09T10:43:04.439424","MEAN_MOTION":14.98327616,"ECCENTRICITY":0.00033795,"INCLINATION":69.9991,"RA_OF_ASC_NODE":85.157,"ARG_OF_PERICENTER":269.503,"MEAN_ANOMALY":90.5742,"EPHEMERIS_TYPE":0,"CLASSIFICATION_TYPE":"U","NORAD_CAT_ID":55423,"ELEMENT_SET_NO":999,"REV_AT_EPOCH":17152,"BSTAR":-3.3395787e-5,"MEAN_MOTION_DOT":-4.91e-6,"MEAN_MOTION_DDOT":0},{"OBJECT_NAME":"COSMOS 2251 DEB","OBJECT_ID":"1993-036BGY","EPOCH":"2026-03-01T01:33:38.892672","MEAN_MOTION":14.73348638,"ECCENTRICITY":0.01207011,"INCLINATION":73.9501,"RA_OF_ASC_NODE":201.0621,"ARG_OF_PERICENTER":60.0186,"MEAN_ANOMALY":301.2902,"EPHEMERIS_TYPE":0,"CLASSIFICATION_TYPE":"U","NORAD_CAT_ID":37126,"ELEMENT_SET_NO":999,"REV_AT_EPOCH":9252,"BSTAR":0.00023487256,"MEAN_MOTION_DOT":1.671e-5,"MEAN_MOTION_DDOT":0}]
